CCSDS_OMM_VERS = 2.0
CREATION_DATE  = 
ORIGINATOR     = 

OBJECT_NAME    = 2026-027B
OBJECT_ID      = 2026-027B
CENTER_NAME    = EARTH
REF_FRAME      = TEME
TIME_SYSTEM    = UTC
MEAN_ELEMENT_THEORY = SGP/SGP4

EPOCH          = 2026-02-15T13:07:44.040864
MEAN_MOTION    = 15.17369489
ECCENTRICITY   = .00093222
INCLINATION    = 97.4870
RA_OF_ASC_NODE = 175.8055
ARG_OF_PERICENTER = 280.5507
MEAN_ANOMALY   = 79.4676

EPHEMERIS_TYPE = 0
CLASSIFICATION_TYPE = U
NORAD_CAT_ID   = 67747
ELEMENT_SET_NO = 999
REV_AT_EPOCH   = 50
BSTAR          = .50605562E-3
MEAN_MOTION_DOT = .10055E-3
MEAN_MOTION_DDOT = 0

CCSDS_OMM_VERS = 2.0
CREATION_DATE  = 
ORIGINATOR     = 

OBJECT_NAME    = 2027-027C
OBJECT_ID      = 2027-027C
CENTER_NAME    = EARTH
REF_FRAME      = TEME
TIME_SYSTEM    = UTC
MEAN_ELEMENT_THEORY = SGP/SGP4

EPOCH          = 2026-02-15T13:07:16.725504
MEAN_MOTION    = 15.17505983
ECCENTRICITY   = .00097867
INCLINATION    = 97.4881
RA_OF_ASC_NODE = 175.8066
ARG_OF_PERICENTER = 283.7223
MEAN_ANOMALY   = 76.2921

EPHEMERIS_TYPE = 0
CLASSIFICATION_TYPE = U
NORAD_CAT_ID   = 67748
ELEMENT_SET_NO = 999
REV_AT_EPOCH   = 50
BSTAR          = .32976526E-3
MEAN_MOTION_DOT = .6552E-4
MEAN_MOTION_DDOT = 0

CCSDS_OMM_VERS = 2.0
CREATION_DATE  = 
ORIGINATOR     = 

OBJECT_NAME    = 2026-027D
OBJECT_ID      = 2026-027D
CENTER_NAME    = EARTH
REF_FRAME      = TEME
TIME_SYSTEM    = UTC
MEAN_ELEMENT_THEORY = SGP/SGP4

EPOCH          = 2026-02-15T11:31:54.494112
MEAN_MOTION    = 15.17658370
ECCENTRICITY   = .00095997
INCLINATION    = 97.4877
RA_OF_ASC_NODE = 175.7416
ARG_OF_PERICENTER = 288.3099
MEAN_ANOMALY   = 71.7090

EPHEMERIS_TYPE = 0
CLASSIFICATION_TYPE = U
NORAD_CAT_ID   = 67749
ELEMENT_SET_NO = 999
REV_AT_EPOCH   = 44
BSTAR          = .59780567E-3
MEAN_MOTION_DOT = .11993E-3
MEAN_MOTION_DDOT = 0

CCSDS_OMM_VERS = 2.0
CREATION_DATE  = 
ORIGINATOR     = 

OBJECT_NAME    = 2026-027E
OBJECT_ID      = 2026-027E
CENTER_NAME    = EARTH
REF_FRAME      = TEME
TIME_SYSTEM    = UTC
MEAN_ELEMENT_THEORY = SGP/SGP4

EPOCH          = 2026-02-15T13:06:48.257568
MEAN_MOTION    = 15.17671829
ECCENTRICITY   = .00087395
INCLINATION    = 97.4887
RA_OF_ASC_NODE = 175.8076
ARG_OF_PERICENTER = 290.2486
MEAN_ANOMALY   = 69.7808

EPHEMERIS_TYPE = 0
CLASSIFICATION_TYPE = U
NORAD_CAT_ID   = 67750
ELEMENT_SET_NO = 999
REV_AT_EPOCH   = 50
BSTAR          = .49431762E-3
MEAN_MOTION_DOT = .9904E-4
MEAN_MOTION_DDOT = 0

CCSDS_OMM_VERS = 2.0
CREATION_DATE  = 
ORIGINATOR     = 

OBJECT_NAME    = 2026-027F
OBJECT_ID      = 2026-027F
CENTER_NAME    = EARTH
REF_FRAME      = TEME
TIME_SYSTEM    = UTC
MEAN_ELEMENT_THEORY = SGP/SGP4

EPOCH          = 2026-02-15T13:06:40.528224
MEAN_MOTION    = 15.17731685
ECCENTRICITY   = .00098016
INCLINATION    = 97.4888
RA_OF_ASC_NODE = 175.8078
ARG_OF_PERICENTER = 288.6172
MEAN_ANOMALY   = 71.3997

EPHEMERIS_TYPE = 0
CLASSIFICATION_TYPE = U
NORAD_CAT_ID   = 67751
ELEMENT_SET_NO = 999
REV_AT_EPOCH   = 50
BSTAR          = .86010789E-3
MEAN_MOTION_DOT = .17334E-3
MEAN_MOTION_DDOT = 0

CCSDS_OMM_VERS = 2.0
CREATION_DATE  = 
ORIGINATOR     = 

OBJECT_NAME    = 2026-027G
OBJECT_ID      = 2026-027G
CENTER_NAME    = EARTH
REF_FRAME      = TEME
TIME_SYSTEM    = UTC
MEAN_ELEMENT_THEORY = SGP/SGP4

EPOCH          = 2026-02-15T13:06:33.039936
MEAN_MOTION    = 15.17755759
ECCENTRICITY   = .00090593
INCLINATION    = 97.4882
RA_OF_ASC_NODE = 175.8074
ARG_OF_PERICENTER = 291.9542
MEAN_ANOMALY   = 68.0728

EPHEMERIS_TYPE = 0
CLASSIFICATION_TYPE = U
NORAD_CAT_ID   = 67752
ELEMENT_SET_NO = 999
REV_AT_EPOCH   = 50
BSTAR          = .53903324E-3
MEAN_MOTION_DOT = .10834E-3
MEAN_MOTION_DDOT = 0

CCSDS_OMM_VERS = 2.0
CREATION_DATE  = 
ORIGINATOR     = 

OBJECT_NAME    = 2026-027H
OBJECT_ID      = 2026-027H
CENTER_NAME    = EARTH
REF_FRAME      = TEME
TIME_SYSTEM    = UTC
MEAN_ELEMENT_THEORY = SGP/SGP4

EPOCH          = 2026-02-15T12:41:17.253888
MEAN_MOTION    = 15.57788447
ECCENTRICITY   = .0274939
INCLINATION    = 97.5142
RA_OF_ASC_NODE = 176.0194
ARG_OF_PERICENTER = 327.6421
MEAN_ANOMALY   = 30.8222

EPHEMERIS_TYPE = 0
CLASSIFICATION_TYPE = U
NORAD_CAT_ID   = 67753
ELEMENT_SET_NO = 999
REV_AT_EPOCH   = 51
BSTAR          = .83214032E-3
MEAN_MOTION_DOT = .424991E-2
MEAN_MOTION_DDOT = .2283972E-5

CCSDS_OMM_VERS = 2.0
CREATION_DATE  = 
ORIGINATOR     = 

OBJECT_NAME    = 2026-027J
OBJECT_ID      = 2026-027J
CENTER_NAME    = EARTH
REF_FRAME      = TEME
TIME_SYSTEM    = UTC
MEAN_ELEMENT_THEORY = SGP/SGP4

EPOCH          = 2026-02-15T14:09:42.970752
MEAN_MOTION    = 15.60553994
ECCENTRICITY   = .02638116
INCLINATION    = 97.5125
RA_OF_ASC_NODE = 176.0925
ARG_OF_PERICENTER = 327.1398
MEAN_ANOMALY   = 31.3687

EPHEMERIS_TYPE = 0
CLASSIFICATION_TYPE = U
NORAD_CAT_ID   = 67754
ELEMENT_SET_NO = 999
REV_AT_EPOCH   = 46
BSTAR          = .16586415E-2
MEAN_MOTION_DOT = .8736E-2
MEAN_MOTION_DDOT = .2320886E-5

CCSDS_OMM_VERS = 2.0
CREATION_DATE  = 
ORIGINATOR     = 

OBJECT_NAME    = CREW DRAGON 12
OBJECT_ID      = 2026-031A
CENTER_NAME    = EARTH
REF_FRAME      = TEME
TIME_SYSTEM    = UTC
MEAN_ELEMENT_THEORY = SGP/SGP4

EPOCH          = 2026-02-15T13:40:14.415456
MEAN_MOTION    = 15.48625638
ECCENTRICITY   = .00109928
INCLINATION    = 51.6318
RA_OF_ASC_NODE = 181.6982
ARG_OF_PERICENTER = 101.7612
MEAN_ANOMALY   = 258.4610

EPHEMERIS_TYPE = 0
CLASSIFICATION_TYPE = U
NORAD_CAT_ID   = 67796
ELEMENT_SET_NO = 999
REV_AT_EPOCH   = 32
BSTAR          = .2325502E-3
MEAN_MOTION_DOT = .12237E-3
MEAN_MOTION_DDOT = 0

